QIANFAN-96              
1 66038U 25233F   25310.26770179  .00000826  00000+0  33896-3 0  9995
2 66038  88.9952  66.2289 0016168 150.6499 209.5606 14.26158644  2848
QIANFAN-97              
1 66039U 25233G   25310.26760060  .00000833  00000+0  34184-3 0  9993
2 66039  88.9952  66.2289 0015742 150.1177 210.0919 14.26164600  2847
QIANFAN-98              
1 66040U 25233H   25310.26733055  .00000825  00000+0  33819-3 0  9994
2 66040  88.9953  66.2290 0015377 148.8807 211.3301 14.26186006  2843
QIANFAN-99              
1 66041U 25233J   25310.26718463  .00000831  00000+0  34051-3 0  9997
2 66041  88.9952  66.2289 0015515 148.0058 212.2081 14.26201538  2848
QIANFAN-100             
1 66042U 25233K   25310.26709543  .00000823  00000+0  33713-3 0  9992
2 66042  88.9952  66.2289 0015964 149.6538 210.5583 14.26217085  2849
QIANFAN-101             
1 66043U 25233L   25310.26425200  .00000498  00000+0  20011-3 0  9993
2 66043  88.9953  66.2285 0015918 147.8774 212.3394 14.26636664  2846
QIANFAN-102             
1 66044U 25233M   25310.26698602  .00000834  00000+0  34167-3 0  9993
2 66044  88.9952  66.2288 0016331 149.7453 210.4687 14.26221309  2844
QIANFAN-103             
1 66045U 25233N   25310.26666353  .00000847  00000+0  34712-3 0  9992
2 66045  88.9953  66.2289 0015722 148.5334 211.6803 14.26250586  2847
QIANFAN-104             
1 66046U 25233P   25310.26642722  .00000845  00000+0  34597-3 0  9996
2 66046  88.9953  66.2289 0015707 150.7714 209.4361 14.26271341  2844
QIANFAN-105             
1 66047U 25233Q   25310.26600375  .00000823  00000+0  33653-3 0  9993
2 66047  88.9952  66.2286 0015898 150.9157 209.2926 14.26329595  2845
QIANFAN-106             
1 66048U 25233R   25310.26604075  .00000821  00000+0  33578-3 0  9999
2 66048  88.9952  66.2287 0015771 150.5828 209.6257 14.26312941  2846
QIANFAN-107             
1 66049U 25233S   25310.26581684  .00000829  00000+0  33889-3 0  9993
2 66049  88.9952  66.2286 0016552 148.7481 211.4700 14.26341847  2849
