CCSDS_OMM_VERS = 2.0
CREATION_DATE  = 
ORIGINATOR     = 

OBJECT_NAME    = QIANFAN-96
OBJECT_ID      = 2025-233F
CENTER_NAME    = EARTH
REF_FRAME      = TEME
TIME_SYSTEM    = UTC
MEAN_ELEMENT_THEORY = SGP/SGP4

EPOCH          = 2025-11-06T06:25:29.434656
MEAN_MOTION    = 14.26158644
ECCENTRICITY   = .00161687
INCLINATION    = 88.9952
RA_OF_ASC_NODE = 66.2289
ARG_OF_PERICENTER = 150.6499
MEAN_ANOMALY   = 209.5606

EPHEMERIS_TYPE = 0
CLASSIFICATION_TYPE = U
NORAD_CAT_ID   = 66038
ELEMENT_SET_NO = 999
REV_AT_EPOCH   = 284
BSTAR          = .33895982E-3
MEAN_MOTION_DOT = .826E-5
MEAN_MOTION_DDOT = 0

CCSDS_OMM_VERS = 2.0
CREATION_DATE  = 
ORIGINATOR     = 

OBJECT_NAME    = QIANFAN-97
OBJECT_ID      = 2025-233G
CENTER_NAME    = EARTH
REF_FRAME      = TEME
TIME_SYSTEM    = UTC
MEAN_ELEMENT_THEORY = SGP/SGP4

EPOCH          = 2025-11-06T06:25:20.691840
MEAN_MOTION    = 14.26164600
ECCENTRICITY   = .00157421
INCLINATION    = 88.9952
RA_OF_ASC_NODE = 66.2289
ARG_OF_PERICENTER = 150.1177
MEAN_ANOMALY   = 210.0919

EPHEMERIS_TYPE = 0
CLASSIFICATION_TYPE = U
NORAD_CAT_ID   = 66039
ELEMENT_SET_NO = 999
REV_AT_EPOCH   = 284
BSTAR          = .34183778E-3
MEAN_MOTION_DOT = .833E-5
MEAN_MOTION_DDOT = 0

CCSDS_OMM_VERS = 2.0
CREATION_DATE  = 
ORIGINATOR     = 

OBJECT_NAME    = QIANFAN-98
OBJECT_ID      = 2025-233H
CENTER_NAME    = EARTH
REF_FRAME      = TEME
TIME_SYSTEM    = UTC
MEAN_ELEMENT_THEORY = SGP/SGP4

EPOCH          = 2025-11-06T06:24:57.359520
MEAN_MOTION    = 14.26186006
ECCENTRICITY   = .00153779
INCLINATION    = 88.9953
RA_OF_ASC_NODE = 66.2290
ARG_OF_PERICENTER = 148.8807
MEAN_ANOMALY   = 211.3301

EPHEMERIS_TYPE = 0
CLASSIFICATION_TYPE = U
NORAD_CAT_ID   = 66040
ELEMENT_SET_NO = 999
REV_AT_EPOCH   = 284
BSTAR          = .33819201E-3
MEAN_MOTION_DOT = .825E-5
MEAN_MOTION_DDOT = 0

CCSDS_OMM_VERS = 2.0
CREATION_DATE  = 
ORIGINATOR     = 

OBJECT_NAME    = QIANFAN-99
OBJECT_ID      = 2025-233J
CENTER_NAME    = EARTH
REF_FRAME      = TEME
TIME_SYSTEM    = UTC
MEAN_ELEMENT_THEORY = SGP/SGP4

EPOCH          = 2025-11-06T06:24:44.752032
MEAN_MOTION    = 14.26201538
ECCENTRICITY   = .00155152
INCLINATION    = 88.9952
RA_OF_ASC_NODE = 66.2289
ARG_OF_PERICENTER = 148.0058
MEAN_ANOMALY   = 212.2081

EPHEMERIS_TYPE = 0
CLASSIFICATION_TYPE = U
NORAD_CAT_ID   = 66041
ELEMENT_SET_NO = 999
REV_AT_EPOCH   = 284
BSTAR          = .34051442E-3
MEAN_MOTION_DOT = .831E-5
MEAN_MOTION_DDOT = 0

CCSDS_OMM_VERS = 2.0
CREATION_DATE  = 
ORIGINATOR     = 

OBJECT_NAME    = QIANFAN-100
OBJECT_ID      = 2025-233K
CENTER_NAME    = EARTH
REF_FRAME      = TEME
TIME_SYSTEM    = UTC
MEAN_ELEMENT_THEORY = SGP/SGP4

EPOCH          = 2025-11-06T06:24:37.045152
MEAN_MOTION    = 14.26217085
ECCENTRICITY   = .00159648
INCLINATION    = 88.9952
RA_OF_ASC_NODE = 66.2289
ARG_OF_PERICENTER = 149.6538
MEAN_ANOMALY   = 210.5583

EPHEMERIS_TYPE = 0
CLASSIFICATION_TYPE = U
NORAD_CAT_ID   = 66042
ELEMENT_SET_NO = 999
REV_AT_EPOCH   = 284
BSTAR          = .33712633E-3
MEAN_MOTION_DOT = .823E-5
MEAN_MOTION_DDOT = 0

CCSDS_OMM_VERS = 2.0
CREATION_DATE  = 
ORIGINATOR     = 

OBJECT_NAME    = QIANFAN-101
OBJECT_ID      = 2025-233L
CENTER_NAME    = EARTH
REF_FRAME      = TEME
TIME_SYSTEM    = UTC
MEAN_ELEMENT_THEORY = SGP/SGP4

EPOCH          = 2025-11-06T06:20:31.372800
MEAN_MOTION    = 14.26636664
ECCENTRICITY   = .00159184
INCLINATION    = 88.9953
RA_OF_ASC_NODE = 66.2285
ARG_OF_PERICENTER = 147.8774
MEAN_ANOMALY   = 212.3394

EPHEMERIS_TYPE = 0
CLASSIFICATION_TYPE = U
NORAD_CAT_ID   = 66043
ELEMENT_SET_NO = 999
REV_AT_EPOCH   = 284
BSTAR          = .20010665E-3
MEAN_MOTION_DOT = .498E-5
MEAN_MOTION_DDOT = 0

CCSDS_OMM_VERS = 2.0
CREATION_DATE  = 
ORIGINATOR     = 

OBJECT_NAME    = QIANFAN-102
OBJECT_ID      = 2025-233M
CENTER_NAME    = EARTH
REF_FRAME      = TEME
TIME_SYSTEM    = UTC
MEAN_ELEMENT_THEORY = SGP/SGP4

EPOCH          = 2025-11-06T06:24:27.592128
MEAN_MOTION    = 14.26221309
ECCENTRICITY   = .00163312
INCLINATION    = 88.9952
RA_OF_ASC_NODE = 66.2288
ARG_OF_PERICENTER = 149.7453
MEAN_ANOMALY   = 210.4687

EPHEMERIS_TYPE = 0
CLASSIFICATION_TYPE = U
NORAD_CAT_ID   = 66044
ELEMENT_SET_NO = 999
REV_AT_EPOCH   = 284
BSTAR          = .34167395E-3
MEAN_MOTION_DOT = .834E-5
MEAN_MOTION_DDOT = 0

CCSDS_OMM_VERS = 2.0
CREATION_DATE  = 
ORIGINATOR     = 

OBJECT_NAME    = QIANFAN-103
OBJECT_ID      = 2025-233N
CENTER_NAME    = EARTH
REF_FRAME      = TEME
TIME_SYSTEM    = UTC
MEAN_ELEMENT_THEORY = SGP/SGP4

EPOCH          = 2025-11-06T06:23:59.728992
MEAN_MOTION    = 14.26250586
ECCENTRICITY   = .00157226
INCLINATION    = 88.9953
RA_OF_ASC_NODE = 66.2289
ARG_OF_PERICENTER = 148.5334
MEAN_ANOMALY   = 211.6803

EPHEMERIS_TYPE = 0
CLASSIFICATION_TYPE = U
NORAD_CAT_ID   = 66045
ELEMENT_SET_NO = 999
REV_AT_EPOCH   = 284
BSTAR          = .34711766E-3
MEAN_MOTION_DOT = .847E-5
MEAN_MOTION_DDOT = 0

CCSDS_OMM_VERS = 2.0
CREATION_DATE  = 
ORIGINATOR     = 

OBJECT_NAME    = QIANFAN-104
OBJECT_ID      = 2025-233P
CENTER_NAME    = EARTH
REF_FRAME      = TEME
TIME_SYSTEM    = UTC
MEAN_ELEMENT_THEORY = SGP/SGP4

EPOCH          = 2025-11-06T06:23:39.311808
MEAN_MOTION    = 14.26271341
ECCENTRICITY   = .00157071
INCLINATION    = 88.9953
RA_OF_ASC_NODE = 66.2289
ARG_OF_PERICENTER = 150.7714
MEAN_ANOMALY   = 209.4361

EPHEMERIS_TYPE = 0
CLASSIFICATION_TYPE = U
NORAD_CAT_ID   = 66046
ELEMENT_SET_NO = 999
REV_AT_EPOCH   = 284
BSTAR          = .34597221E-3
MEAN_MOTION_DOT = .845E-5
MEAN_MOTION_DDOT = 0

CCSDS_OMM_VERS = 2.0
CREATION_DATE  = 
ORIGINATOR     = 

OBJECT_NAME    = QIANFAN-105
OBJECT_ID      = 2025-233Q
CENTER_NAME    = EARTH
REF_FRAME      = TEME
TIME_SYSTEM    = UTC
MEAN_ELEMENT_THEORY = SGP/SGP4

EPOCH          = 2025-11-06T06:23:02.724000
MEAN_MOTION    = 14.26329595
ECCENTRICITY   = .00158986
INCLINATION    = 88.9952
RA_OF_ASC_NODE = 66.2286
ARG_OF_PERICENTER = 150.9157
MEAN_ANOMALY   = 209.2926

EPHEMERIS_TYPE = 0
CLASSIFICATION_TYPE = U
NORAD_CAT_ID   = 66047
ELEMENT_SET_NO = 999
REV_AT_EPOCH   = 284
BSTAR          = .33652868E-3
MEAN_MOTION_DOT = .823E-5
MEAN_MOTION_DDOT = 0

CCSDS_OMM_VERS = 2.0
CREATION_DATE  = 
ORIGINATOR     = 

OBJECT_NAME    = QIANFAN-106
OBJECT_ID      = 2025-233R
CENTER_NAME    = EARTH
REF_FRAME      = TEME
TIME_SYSTEM    = UTC
MEAN_ELEMENT_THEORY = SGP/SGP4

EPOCH          = 2025-11-06T06:23:05.920800
MEAN_MOTION    = 14.26312941
ECCENTRICITY   = .00157712
INCLINATION    = 88.9952
RA_OF_ASC_NODE = 66.2287
ARG_OF_PERICENTER = 150.5828
MEAN_ANOMALY   = 209.6257

EPHEMERIS_TYPE = 0
CLASSIFICATION_TYPE = U
NORAD_CAT_ID   = 66048
ELEMENT_SET_NO = 999
REV_AT_EPOCH   = 284
BSTAR          = .33577852E-3
MEAN_MOTION_DOT = .821E-5
MEAN_MOTION_DDOT = 0

CCSDS_OMM_VERS = 2.0
CREATION_DATE  = 
ORIGINATOR     = 

OBJECT_NAME    = QIANFAN-107
OBJECT_ID      = 2025-233S
CENTER_NAME    = EARTH
REF_FRAME      = TEME
TIME_SYSTEM    = UTC
MEAN_ELEMENT_THEORY = SGP/SGP4

EPOCH          = 2025-11-06T06:22:46.574976
MEAN_MOTION    = 14.26341847
ECCENTRICITY   = .00165524
INCLINATION    = 88.9952
RA_OF_ASC_NODE = 66.2286
ARG_OF_PERICENTER = 148.7481
MEAN_ANOMALY   = 211.4700

EPHEMERIS_TYPE = 0
CLASSIFICATION_TYPE = U
NORAD_CAT_ID   = 66049
ELEMENT_SET_NO = 999
REV_AT_EPOCH   = 284
BSTAR          = .3388859E-3
MEAN_MOTION_DOT = .829E-5
MEAN_MOTION_DDOT = 0

